NORAD_CAT_ID,OBJECT_NAME,OBJECT_TYPE,EPOCH,MEAN_MOTION,ECCENTRICITY,INCLINATION,RA_OF_ASC_NODE,ARG_OF_PERICENTER,MEAN_ANOMALY,BSTAR,MEAN_MOTION_DOT,MEAN_MOTION_DDOT,TLE_LINE0,TLE_LINE1,TLE_LINE2,SEMIMAJOR_AXIS,PERIOD,APOGEE,PERIGEE,DECAYED
56474.0,STARLINK-5524,PAYLOAD,2023-12-04 14:13:43,14.98313489,0.0002102,70.0027,47.5193,265.7884,94.3035,-0.00030283,-3.703e-05,0.0,0 STARLINK-5524,1 56474U 23064AC  23338.59286398 -.00003703  00000-0 -30283-3 0  9994,2 56474  70.0027  47.5193 0002102 265.7884  94.3035 14.98313489 31994,6950.244,96.108,573.57,570.648,0.0
56474.0,STARLINK-5524,PAYLOAD,2023-12-05 11:03:26,14.98318072,0.0002086,70.0041,45.3328,234.2545,125.842,0.00049346,5.798e-05,0.0,0 STARLINK-5524,1 56474U 23064AC  23339.46072108  .00005798  00000-0  49346-3 0  9997,2 56474  70.0041  45.3328 0002086 234.2545 125.8420 14.98318072 32488,6950.23,96.108,573.545,570.645,0.0
56474.0,STARLINK-5524,PAYLOAD,2023-12-05 12:39:34,14.9831712,0.0002384,70.0026,45.1619,263.8814,96.2074,0.00053093,6.245e-05,0.0,0 STARLINK-5524,1 56474U 23064AC  23339.52748151  .00006245  00000-0  53093-3 0  9994,2 56474  70.0026  45.1619 0002384 263.8814  96.2074 14.98317120 32131,6950.233,96.108,573.755,570.441,0.0
56474.0,STARLINK-5524,PAYLOAD,2023-12-06 11:05:27,14.98315291,0.0002056,70.0044,42.8076,233.5231,126.5739,0.00033465,3.901e-05,0.0,0 STARLINK-5524,1 56474U 23064AC  23340.46212625  .00003901  00000-0  33465-3 0  9998,2 56474  70.0044  42.8076 0002056 233.5231 126.5739 14.98315291 32632,6950.238,96.108,573.532,570.674,0.0
56474.0,STARLINK-5524,PAYLOAD,2023-12-06 12:41:35,14.98324361,0.0001945,70.0039,42.6384,273.6177,86.4759,0.00025828,2.99e-05,0.0,0 STARLINK-5524,1 56474U 23064AC  23340.52888590  .00002990  00000-0  25828-3 0  9996,2 56474  70.0039  42.6384 0001945 273.6177  86.4759 14.98324361 32281,6950.21,96.107,573.427,570.724,0.0
56474.0,STARLINK-5524,PAYLOAD,2023-12-07 11:07:28,14.98335135,0.0002625,70.0022,40.2804,266.0078,94.0781,-0.00015634,-1.958e-05,0.0,0 STARLINK-5524,1 56474U 23064AC  23341.46352208 -.00001958  00000-0 -15634-3 0  9991,2 56474  70.0022  40.2804 0002625 266.0078  94.0781 14.98335135 32782,6950.177,96.107,573.866,570.218,0.0
56474.0,STARLINK-5524,PAYLOAD,2023-12-07 14:19:43,14.98355253,0.0002642,70.0016,39.9415,278.3301,81.7559,-0.00045786,-5.555e-05,0.0,0 STARLINK-5524,1 56474U 23064AC  23341.59703592 -.00005555  00000-0 -45786-3 0  9999,2 56474  70.0016  39.9415 0002642 278.3301  81.7559 14.98355253 32444,6950.115,96.105,573.816,570.144,0.0
56474.0,STARLINK-5524,PAYLOAD,2023-12-08 03:08:48,14.98333946,0.0003069,70.0006,38.5942,279.8901,80.1911,-4.3584e-05,-6.13e-06,0.0,0 STARLINK-5524,1 56474U 23064AC  23342.13111575 -.00000613  00000-0 -43584-4 0  9999,2 56474  70.0006  38.5942 0003069 279.8901  80.1911 14.98333946 32887,6950.181,96.107,574.179,569.913,0.0
56474.0,STARLINK-5524,PAYLOAD,2023-12-08 12:45:35,14.98360516,0.0002925,70.0009,37.5844,280.3768,79.7061,-0.00042385,-5.151e-05,0.0,0 STARLINK-5524,1 56474U 23064AC  23342.53166661 -.00005151  00000-0 -42385-3 0  9998,2 56474  70.0009  37.5844 0002925 280.3768  79.7061 14.98360516 32588,6950.099,96.105,573.996,569.931,0.0
56474.0,STARLINK-5524,PAYLOAD,2023-12-09 11:11:29,14.98328266,0.0003072,70.0006,35.2279,274.0118,86.069,5.9763e-05,6.2e-06,0.0,0 STARLINK-5524,1 56474U 23064AC  23343.46631321  .00000620  00000-0  59763-4 0  9994,2 56474  70.0006  35.2279 0003072 274.0118  86.0690 14.98328266 33086,6950.198,96.107,574.198,569.928,0.0
56474.0,STARLINK-5524,PAYLOAD,2023-12-09 14:23:45,14.98341892,0.0003224,70.0004,34.8907,277.6571,82.4222,-0.00014941,-1.876e-05,0.0,0 STARLINK-5524,1 56474U 23064AC  23343.59982936 -.00001876  00000-0 -14941-3 0  9993,2 56474  70.0004  34.8907 0003224 277.6571  82.4222 14.98341892 32741,6950.156,96.106,574.262,569.78,0.0
56474.0,STARLINK-5524,PAYLOAD,2023-12-10 12:49:38,14.98331237,0.0003148,70.0006,32.5341,278.888,81.1922,-4.6493e-05,-6.48e-06,0.0,0 STARLINK-5524,1 56474U 23064AC  23344.53447380 -.00000648  00000-0 -46493-4 0  9991,2 56474  70.0006  32.5341 0003148 278.8880  81.1922 14.98331237 32881,6950.189,96.107,574.242,569.866,0.0
56474.0,STARLINK-5524,PAYLOAD,2023-12-11 12:51:39,14.98331788,0.0003174,70.0003,30.0095,276.6752,83.4045,1.1286e-05,4.2e-07,0.0,0 STARLINK-5524,1 56474U 23064AC  23345.53587118  .00000042  00000-0  11286-4 0  9994,2 56474  70.0003  30.0095 0003174 276.6752  83.4045 14.98331788 33030,6950.187,96.107,574.258,569.846,0.0
56474.0,STARLINK-5524,PAYLOAD,2023-12-12 12:53:40,14.98331082,0.0003148,70.0004,27.485,276.8661,83.214,2.6219e-05,2.2e-06,0.0,0 STARLINK-5524,1 56474U 23064AC  23346.53727099  .00000220  00000-0  26219-4 0  9999,2 56474  70.0004  27.4850 0003148 276.8661  83.2140 14.98331082 33189,6950.19,96.107,574.242,569.867,0.0
56474.0,STARLINK-5524,PAYLOAD,2023-12-13 12:55:40,14.98333208,0.0003019,70.0005,24.9605,270.8052,89.2761,3.4127e-05,3.14e-06,0.0,0 STARLINK-5524,1 56474U 23064AC  23347.53866766  .00000314  00000-0  34127-4 0  9996,2 56474  70.0005  24.9605 0003019 270.8052  89.2761 14.98333208 33339,6950.183,96.107,574.146,569.95,0.0
56474.0,STARLINK-5524,PAYLOAD,2023-12-14 11:21:34,14.98327205,0.0002942,70.0008,22.6039,270.9289,89.1533,-2.036e-05,-3.36e-06,0.0,0 STARLINK-5524,1 56474U 23064AC  23348.47331288 -.00000336  00000-0 -20360-4 0  9996,2 56474  70.0008  22.6039 0002942 270.9289  89.1533 14.98327205 33836,6950.202,96.107,574.111,570.022,0.0
56474.0,STARLINK-5524,PAYLOAD,2023-12-14 12:57:42,14.98327613,0.0002942,70.0008,22.4357,270.7318,89.3504,-1.6251e-05,-2.87e-06,0.0,0 STARLINK-5524,1 56474U 23064AC  23348.54007259 -.00000287  00000-0 -16251-4 0  9991,2 56474  70.0008  22.4357 0002942 270.7318  89.3504 14.98327613 33482,6950.2,96.107,574.11,570.021,0.0
56474.0,STARLINK-5524,PAYLOAD,2023-12-15 04:59:02,14.98333213,0.0002997,70.0006,20.7523,270.429,89.6525,2.6781e-06,-6.1e-07,0.0,0 STARLINK-5524,1 56474U 23064AC  23349.20766775 -.00000061  00000-0  26781-5 0  9999,2 56474  70.0006  20.7523 0002997 270.4290  89.6525 14.98333213 33942,6950.183,96.107,574.131,569.965,0.0
56474.0,STARLINK-5524,PAYLOAD,2023-12-15 11:23:34,14.98333114,0.0002992,70.0006,20.0789,270.471,89.6106,3.9142e-06,-4.6e-07,0.0,0 STARLINK-5524,1 56474U 23064AC  23349.47470729 -.00000046  00000-0  39142-5 0  9997,2 56474  70.0006  20.0789 0002992 270.4710  89.6106 14.98333114 33621,6950.183,96.107,574.128,569.969,0.0
56474.0,STARLINK-5524,PAYLOAD,2023-12-16 03:24:55,14.98326015,0.0003006,70.0005,18.3956,269.0654,91.016,6.1048e-06,-2e-07,0.0,0 STARLINK-5524,1 56474U 23064AC  23350.14231149 -.00000020  00000-0  61048-5 0  9996,2 56474  70.0005  18.3956 0003006 269.0654  91.0160 14.98326015 34084,6950.205,96.107,574.159,569.981,0.0
56474.0,STARLINK-5524,PAYLOAD,2023-12-16 11:25:36,14.98326727,0.0002987,70.0004,17.5541,267.1658,92.9159,1.2863e-05,6e-07,0.0,0 STARLINK-5524,1 56474U 23064AC  23350.47611146  .00000060  00000-0  12863-4 0  9994,2 56474  70.0004  17.5541 0002987 267.1658  92.9159 14.98326727 33777,6950.203,96.107,574.144,569.992,0.0
56474.0,STARLINK-5524,PAYLOAD,2023-12-17 03:26:56,14.98327432,0.0002822,70.0009,15.8716,258.8986,101.1856,-2.9233e-05,-4.42e-06,0.0,0 STARLINK-5524,1 56474U 23064AC  23351.14371287 -.00000442  00000-0 -29233-4 0  9993,2 56474  70.0009  15.8716 0002822 258.8986 101.1856 14.98327432 34239,6950.201,96.107,574.027,570.104,0.0
56474.0,STARLINK-5524,PAYLOAD,2023-12-17 11:27:37,14.98328755,0.0002989,70.0005,15.0293,269.0114,91.0702,-2.1632e-05,-3.51e-06,0.0,0 STARLINK-5524,1 56474U 23064AC  23351.47751281 -.00000351  00000-0 -21632-4 0  9999,2 56474  70.0005  15.0293 0002989 269.0114  91.0702 14.98328755 33929,6950.197,96.107,574.139,569.984,0.0
56474.0,STARLINK-5524,PAYLOAD,2023-12-18 03:28:57,14.9833407,0.0003079,70.0002,13.3456,268.741,91.3396,8.5285e-05,9.25e-06,0.0,0 STARLINK-5524,1 56474U 23064AC  23352.14510594  .00000925  00000-0  85285-4 0  9993,2 56474  70.0002  13.3456 0003079 268.7410  91.3396 14.98334070 34384,6950.18,96.107,574.185,569.905,0.0
56474.0,STARLINK-5524,PAYLOAD,2023-12-18 11:29:37,14.98338291,0.0003033,70.0002,12.5042,268.4422,91.639,0.00012846,1.44e-05,0.0,0 STARLINK-5524,1 56474U 23064AC  23352.47890100  .00001440  00000-0  12846-3 0  9998,2 56474  70.0002  12.5042 0003033 268.4422  91.6390 14.98338291 34078,6950.167,96.106,574.14,569.924,0.0
56474.0,STARLINK-5524,PAYLOAD,2023-12-19 03:30:58,14.98327687,0.0002375,70.0019,10.8223,250.0928,109.9975,2.7897e-05,2.4e-06,0.0,0 STARLINK-5524,1 56474U 23064AC  23353.14651030  .00000240  00000-0  27897-4 0  9990,2 56474  70.0019  10.8223 0002375 250.0928 109.9975 14.98327687 34534,6950.2,96.107,573.716,570.414,0.0
56474.0,STARLINK-5524,PAYLOAD,2023-12-19 11:31:39,14.98324445,0.0002469,70.0014,9.98,254.745,105.3436,-5.4982e-06,-1.58e-06,0.0,0 STARLINK-5524,1 56474U 23064AC  23353.48031398 -.00000158  00000-0 -54982-5 0  9992,2 56474  70.0014   9.9800 0002469 254.7450 105.3436 14.98324445 34221,6950.21,96.107,573.791,570.359,0.0
56474.0,STARLINK-5524,PAYLOAD,2023-12-20 03:32:59,14.98331452,0.0002435,70.0012,8.2966,257.8034,102.2852,-5.0715e-05,-6.98e-06,0.0,0 STARLINK-5524,1 56474U 23064AC  23354.14791082 -.00000698  00000-0 -50715-4 0  9997,2 56474  70.0012   8.2966 0002435 257.8034 102.2852 14.98331452 34683,6950.188,96.107,573.746,570.361,0.0
56474.0,STARLINK-5524,PAYLOAD,2023-12-20 11:33:39,14.98331702,0.000264,70.0007,7.4541,264.813,95.2728,-3.6902e-05,-5.33e-06,0.0,0 STARLINK-5524,1 56474U 23064AC  23354.48171026 -.00000533  00000-0 -36902-4 0  9994,2 56474  70.0007   7.4541 0002640 264.8130  95.2728 14.98331702 34377,6950.188,96.107,573.887,570.218,0.0
56474.0,STARLINK-5524,PAYLOAD,2023-12-21 03:34:59,14.98332926,0.000266,70.0004,5.7706,265.6403,94.4452,8.3508e-05,9.04e-06,0.0,0 STARLINK-5524,1 56474U 23064AC  23355.14930520  .00000904  00000-0  83508-4 0  9994,2 56474  70.0004   5.7706 0002660 265.6403  94.4452 14.98332926 34837,6950.184,96.107,573.898,570.2,0.0
